[{"OBJECT_NAME":"TISAT 1","OBJECT_ID":"2010-035E","EPOCH":"2026-03-09T18:10:07.877568","MEAN_MOTION":15.27628633,"ECCENTRICITY":0.00013432,"INCLINATION":98.0645,"RA_OF_ASC_NODE":6.8512,"ARG_OF_PERICENTER":159.303,"MEAN_ANOMALY":200.8262,"EPHEMERIS_TYPE":0,"CLASSIFICATION_TYPE":"U","NORAD_CAT_ID":36799,"ELEMENT_SET_NO":999,"REV_AT_EPOCH":85250,"BSTAR":0.00091004793,"MEAN_MOTION_DOT":0.00024554,"MEAN_MOTION_DDOT":0},{"OBJECT_NAME":"STARLINK-34182","OBJECT_ID":"2025-101V","EPOCH":"2026-03-09T04:16:46.688160","MEAN_MOTION":15.27635276,"ECCENTRICITY":0.0002042,"INCLINATION":43.0053,"RA_OF_ASC_NODE":357.6816,"ARG_OF_PERICENTER":294.4039,"MEAN_ANOMALY":65.66,"EPHEMERIS_TYPE":0,"CLASSIFICATION_TYPE":"U","NORAD_CAT_ID":64013,"ELEMENT_SET_NO":999,"REV_AT_EPOCH":4701,"BSTAR":0.0021295791,"MEAN_MOTION_DOT":0.00058909,"MEAN_MOTION_DDOT":0}]
